{"type": "FeatureCollection", "features": [ {"type": "Feature", "properties": {"norad_id": 43010, "name": "FENGYUN 3D", "group": "weather", "lat": -38.795748773903526, "lon": 132.07642286960544, "alt_km": 832.3222683300328, "timestamp": "2025-12-18T23:35:48.688997+00:00", "meta": {"OBJECT_NAME": "FENGYUN 3D", "OBJECT_ID": "2017-072A", "EPOCH": "2025-12-18T14:06:35.740224", "MEAN_MOTION": 14.19686452, "ECCENTRICITY": 0.00012269, "INCLINATION": 98.9888, "RA_OF_ASC_NODE": 318.9857, "ARG_OF_PERICENTER": 163.7963, "MEAN_ANOMALY": 196.3252, "EPHEMERIS_TYPE": 0, "CLASSIFICATION_TYPE": "U", "NORAD_CAT_ID": 43010, "ELEMENT_SET_NO": 999, "REV_AT_EPOCH": 41936, "BSTAR": 0.00011193262, "MEAN_MOTION_DOT": 1.91e-06, "MEAN_MOTION_DDOT": 0}, "tle": {"line1": "1 43010U 17072A   25352.58791366  .00000191  00000+0  11193-3 0  9995", "line2": "2 43010  98.9888 318.9857 0001226 163.7963 196.3252 14.19686452419364"}}, "geometry": {"type": "Point", "coordinates": [132.07642286960544, -38.795748773903526]}}, {"type": "Feature", "properties": {"norad_id": 43013, "name": "NOAA 20 (JPSS-1)", "group": "weather", "lat": 7.686570780829507, "lon": -71.98077937875462, "alt_km": 828.2764782232271, "timestamp": "2025-12-18T23:35:48.689009+00:00", "meta": {"OBJECT_NAME": "NOAA 20 (JPSS-1)", "OBJECT_ID": "2017-073A", "EPOCH": "2025-12-18T13:24:37.425600", "MEAN_MOTION": 14.19527218, "ECCENTRICITY": 0.00021315, "INCLINATION": 98.7606, "RA_OF_ASC_NODE": 288.792, "ARG_OF_PERICENTER": 78.8418, "MEAN_ANOMALY": 281.2997, "EPHEMERIS_TYPE": 0, "CLASSIFICATION_TYPE": "U", "NORAD_CAT_ID": 43013, "ELEMENT_SET_NO": 999, "REV_AT_EPOCH": 41884, "BSTAR": 4.5850475e-05, "MEAN_MOTION_DOT": 5.3e-07, "MEAN_MOTION_DDOT": 0}, "tle": {"line1": "1 43013U 17073A   25352.55876650  .00000053  00000+0  45850-4 0  9991", "line2": "2 43013  98.7606 288.7920 0002131  78.8418 281.2997 14.19527218418841"}}, "geometry": {"type": "Point", "coordinates": [-71.98077937875462, 7.686570780829507]}}, {"type": "Feature", "properties": {"norad_id": 43226, "name": "GOES 17", "group": "weather", "lat": -0.4674560137129304, "lon": -7.686396379128641, "alt_km": 35782.35349648038, "timestamp": "2025-12-18T23:35:48.689022+00:00", "meta": {"OBJECT_NAME": "GOES 17", "OBJECT_ID": "2018-022A", "EPOCH": "2025-12-18T14:34:56.779104", "MEAN_MOTION": 1.00271137, "ECCENTRICITY": 0.00030873, "INCLINATION": 0.472, "RA_OF_ASC_NODE": 89.1923, "ARG_OF_PERICENTER": 191.0453, "MEAN_ANOMALY": 296.4671, "EPHEMERIS_TYPE": 0, "CLASSIFICATION_TYPE": "U", "NORAD_CAT_ID": 43226, "ELEMENT_SET_NO": 999, "REV_AT_EPOCH": 2861, "BSTAR": 0, "MEAN_MOTION_DOT": -1.58e-06, "MEAN_MOTION_DDOT": 0}, "tle": {"line1": "1 43226U 18022A   25352.60760161 -.00000158  00000+0  00000+0 0  9997", "line2": "2 43226   0.4720  89.1923 0003087 191.0453 296.4671  1.00271137 28619"}}, "geometry": {"type": "Point", "coordinates": [-7.686396379128641, -0.4674560137129304]}}, {"type": "Feature", "properties": {"norad_id": 43491, "name": "FENGYUN 2H", "group": "weather", "lat": 2.5322757708872414, "lon": 161.09970805623044, "alt_km": 35785.21659175137, "timestamp": "2025-12-18T23:35:48.689036+00:00", "meta": {"OBJECT_NAME": "FENGYUN 2H", "OBJECT_ID": "2018-050A", "EPOCH": "2025-12-18T15:23:07.164960", "MEAN_MOTION": 1.00271313, "ECCENTRICITY": 0.0002421, "INCLINATION": 2.5656, "RA_OF_ASC_NODE": 81.2669, "ARG_OF_PERICENTER": 165.874, "MEAN_ANOMALY": 150.4936, "EPHEMERIS_TYPE": 0, "CLASSIFICATION_TYPE": "U", "NORAD_CAT_ID": 43491, "ELEMENT_SET_NO": 999, "REV_AT_EPOCH": 2762, "BSTAR": 0, "MEAN_MOTION_DOT": -1.07e-06, "MEAN_MOTION_DDOT": 0}, "tle": {"line1": "1 43491U 18050A   25352.64105515 -.00000107  00000+0  00000+0 0  9996", "line2": "2 43491   2.5656  81.2669 0002421 165.8740 150.4936  1.00271313 27622"}}, "geometry": {"type": "Point", "coordinates": [161.09970805623044, 2.5322757708872414]}}, {"type": "Feature", "properties": {"norad_id": 43689, "name": "METOP-C", "group": "weather", "lat": -12.832078910072035, "lon": -131.3399679701597, "alt_km": 825.4275527486743, "timestamp": "2025-12-18T23:35:48.689047+00:00", "meta": {"OBJECT_NAME": "METOP-C", "OBJECT_ID": "2018-087A", "EPOCH": "2025-12-18T14:14:44.782368", "MEAN_MOTION": 14.21486587, "ECCENTRICITY": 9.633e-05, "INCLINATION": 98.6922, "RA_OF_ASC_NODE": 50.2734, "ARG_OF_PERICENTER": 28.8586, "MEAN_ANOMALY": 331.2644, "EPHEMERIS_TYPE": 0, "CLASSIFICATION_TYPE": "U", "NORAD_CAT_ID": 43689, "ELEMENT_SET_NO": 999, "REV_AT_EPOCH": 36917, "BSTAR": 7.0445763e-05, "MEAN_MOTION_DOT": 1.1e-06, "MEAN_MOTION_DDOT": 0}, "tle": {"line1": "1 43689U 18087A   25352.59357387  .00000110  00000+0  70446-4 0  9994", "line2": "2 43689  98.6922  50.2734 0000963  28.8586 331.2644 14.21486587369179"}}, "geometry": {"type": "Point", "coordinates": [-131.3399679701597, -12.832078910072035]}}, {"type": "Feature", "properties": {"norad_id": 43823, "name": "GEO-KOMPSAT-2A", "group": "weather", "lat": -0.005209200635646674, "lon": -149.9461803428998, "alt_km": 35787.72754299395, "timestamp": "2025-12-18T23:35:48.689058+00:00", "meta": {"OBJECT_NAME": "GEO-KOMPSAT-2A", "OBJECT_ID": "2018-100A", "EPOCH": "2025-12-18T13:54:15.674976", "MEAN_MOTION": 1.00270279, "ECCENTRICITY": 5.687e-05, "INCLINATION": 0.0447, "RA_OF_ASC_NODE": 154.2273, "ARG_OF_PERICENTER": 297.0324, "MEAN_ANOMALY": 333.0163, "EPHEMERIS_TYPE": 0, "CLASSIFICATION_TYPE": "U", "NORAD_CAT_ID": 43823, "ELEMENT_SET_NO": 999, "REV_AT_EPOCH": 2581, "BSTAR": 0, "MEAN_MOTION_DOT": -3.19e-06, "MEAN_MOTION_DDOT": 0}, "tle": {"line1": "1 43823U 18100A   25352.57934809 -.00000319  00000+0  00000+0 0  9994", "line2": "2 43823   0.0447 154.2273 0000568 297.0324 333.0163  1.00270279 25810"}}, "geometry": {"type": "Point", "coordinates": [-149.9461803428998, -0.005209200635646674]}}, {"type": "Feature", "properties": {"norad_id": 44387, "name": "METEOR-M2 2", "group": "weather", "lat": -29.64536310180077, "lon": -22.09694532001561, "alt_km": 817.7491248021797, "timestamp": "2025-12-18T23:35:48.689069+00:00", "meta": {"OBJECT_NAME": "METEOR-M2 2", "OBJECT_ID": "2019-038A", "EPOCH": "2025-12-18T15:18:27.656640", "MEAN_MOTION": 14.24294831, "ECCENTRICITY": 0.00014724, "INCLINATION": 98.8967, "RA_OF_ASC_NODE": 332.439, "ARG_OF_PERICENTER": 135.1732, "MEAN_ANOMALY": 224.9565, "EPHEMERIS_TYPE": 0, "CLASSIFICATION_TYPE": "U", "NORAD_CAT_ID": 44387, "ELEMENT_SET_NO": 999, "REV_AT_EPOCH": 33559, "BSTAR": 0.0001649526, "MEAN_MOTION_DOT": 3.35e-06, "MEAN_MOTION_DDOT": 0}, "tle": {"line1": "1 44387U 19038A   25352.63782010  .00000335  00000+0  16495-3 0  9999", "line2": "2 44387  98.8967 332.4390 0001472 135.1732 224.9565 14.24294831335591"}}, "geometry": {"type": "Point", "coordinates": [-22.09694532001561, -29.64536310180077]}}, {"type": "Feature", "properties": {"norad_id": 47719, "name": "ARKTIKA-M 1", "group": "weather", "lat": 32.40340411324948, "lon": -115.52911131391511, "alt_km": 15810.287930822691, "timestamp": "2025-12-18T23:35:48.689093+00:00", "meta": {"OBJECT_NAME": "ARKTIKA-M 1", "OBJECT_ID": "2021-016A", "EPOCH": "2025-12-18T01:24:39.137184", "MEAN_MOTION": 2.00630666, "ECCENTRICITY": 0.72069203, "INCLINATION": 63.1752, "RA_OF_ASC_NODE": 83.2669, "ARG_OF_PERICENTER": 269.1449, "MEAN_ANOMALY": 15.5709, "EPHEMERIS_TYPE": 0, "CLASSIFICATION_TYPE": "U", "NORAD_CAT_ID": 47719, "ELEMENT_SET_NO": 999, "REV_AT_EPOCH": 3515, "BSTAR": 0, "MEAN_MOTION_DOT": -1.26e-06, "MEAN_MOTION_DDOT": 0}, "tle": {"line1": "1 47719U 21016A   25352.05878631 -.00000126  00000+0  00000+0 0  9991", "line2": "2 47719  63.1752  83.2669 7206920 269.1449  15.5709  2.00630666 35159"}}, "geometry": {"type": "Point", "coordinates": [-115.52911131391511, 32.40340411324948]}}, {"type": "Feature", "properties": {"norad_id": 49008, "name": "FENGYUN 3E", "group": "weather", "lat": -10.211630312342987, "lon": 171.84123465087015, "alt_km": 829.5235906495336, "timestamp": "2025-12-18T23:35:48.689105+00:00", "meta": {"OBJECT_NAME": "FENGYUN 3E", "OBJECT_ID": "2021-062A", "EPOCH": "2025-12-18T14:14:51.302112", "MEAN_MOTION": 14.19880331, "ECCENTRICITY": 6.299e-05, "INCLINATION": 98.7471, "RA_OF_ASC_NODE": 353.0456, "ARG_OF_PERICENTER": 224.8819, "MEAN_ANOMALY": 135.2306, "EPHEMERIS_TYPE": 0, "CLASSIFICATION_TYPE": "U", "NORAD_CAT_ID": 49008, "ELEMENT_SET_NO": 999, "REV_AT_EPOCH": 23095, "BSTAR": -2.8232872e-05, "MEAN_MOTION_DOT": -1.04e-06, "MEAN_MOTION_DDOT": 0}, "tle": {"line1": "1 49008U 21062A   25352.59364933 -.00000104  00000+0 -28233-4 0  9999", "line2": "2 49008  98.7471 353.0456 0000629 224.8819 135.2306 14.19880331230953"}}, "geometry": {"type": "Point", "coordinates": [171.84123465087015, -10.211630312342987]}}, {"type": "Feature", "properties": {"norad_id": 51850, "name": "GOES 18", "group": "weather", "lat": 0.005128782984110471, "lon": -55.21850894596783, "alt_km": 35784.10485109413, "timestamp": "2025-12-18T23:35:48.689116+00:00", "meta": {"OBJECT_NAME": "GOES 18", "OBJECT_ID": "2022-021A", "EPOCH": "2025-12-18T14:21:20.581632", "MEAN_MOTION": 1.00272589, "ECCENTRICITY": 4.773e-05, "INCLINATION": 0.02, "RA_OF_ASC_NODE": 169.2606, "ARG_OF_PERICENTER": 166.8053, "MEAN_ANOMALY": 189.7318, "EPHEMERIS_TYPE": 0, "CLASSIFICATION_TYPE": "U", "NORAD_CAT_ID": 51850, "ELEMENT_SET_NO": 999, "REV_AT_EPOCH": 478, "BSTAR": 0, "MEAN_MOTION_DOT": 1.22e-06, "MEAN_MOTION_DDOT": 0}, "tle": {"line1": "1 51850U 22021A   25352.59815488  .00000122  00000+0  00000+0 0  9994", "line2": "2 51850   0.0200 169.2606 0000477 166.8053 189.7318  1.00272589  4780"}}, "geometry": {"type": "Point", "coordinates": [-55.21850894596783, 0.005128782984110471]}}]}